#aV2020  1 31  0  0  0.00000000     288 DD+AD WGS84 FIT  NGA
## 2090 432000.00000000   300.00000000 58879 0.0000000000000
+   32     1  2  3  4  5  6  7  8  9 10 11 12 13 14 15 16 17
+         18 19 20 21 22 23 24 25 26 27 28 29 30 31 32  0  0
+          0  0  0  0  0  0  0  0  0  0  0  0  0  0  0  0  0
+          0  0  0  0  0  0  0  0  0  0  0  0  0  0  0  0  0
+          0  0  0  0  0  0  0  0  0  0  0  0  0  0  0  0  0
++         2  2  2  2  2  2  2  2  2  2  2  2  2  2  2  2  2
++         2  2  2  2  2  2  2  2  2  2  2  2  2  2  2  0  0
++         0  0  0  0  0  0  0  0  0  0  0  0  0  0  0  0  0
++         0  0  0  0  0  0  0  0  0  0  0  0  0  0  0  0  0
++         0  0  0  0  0  0  0  0  0  0  0  0  0  0  0  0  0
%c cc cc ccc ccc cccc cccc cccc cccc ccccc ccccc ccccc ccccc
%c cc cc ccc ccc cccc cccc cccc cccc ccccc ccccc ccccc ccccc
%f  0.0000000  0.000000000  0.00000000000  0.000000000000000
%f  0.0000000  0.000000000  0.00000000000  0.000000000000000
%i    0    0    0    0      0      0      0      0         0
%i    0    0    0    0      0      0      0      0         0
/*      NGA, ST. LOUIS,MO.                                  
/*   EPHEMERIS COMPUTED FROM 2 DAYS OF DATA                 
/*   EPOCHA v5 SMOOTHER                                     
/*   G1762 IERS2010 SATAF SATAPC                            
*  2020  1 31 14  0  0.00000000
P  1 -14000.660522   5405.795320  21677.881940   -280.038083                    
V  1  -4105.750609 -27703.728578   4533.157310     -0.121586                    
P  2  13504.050858  17937.959488 -13619.133544   -396.188269                    
V  2   1380.336757  18449.893457  24441.322062     -0.070392                    
P  3 -22651.374979  12435.445332   5868.012812    -84.043095                    
V  3   4318.856250  -6735.105141  30734.005785     -0.083297                    
P  4 -21511.393201   2263.458274 -15423.764526    -42.222923                    
V  4 -17090.860219  -9779.280815  22369.220745     -0.054167                    
P  5  16540.588289   5112.325940 -20325.868423     -6.889860                    
V  5 -19033.931417  16984.145342 -11100.058796     -0.005658                    
P  6   6565.509376  25317.559049  -4459.816750   -196.662144                    
V  6  -1444.537906   5983.650322  31491.638057     -0.097825                    
P  7  -6719.382550  21631.473828 -13183.475698   -204.188019                    
V  7  -4974.628394 -16929.149304 -25180.995458     -0.083877                    
P  8 -25405.604010  -5278.940249   6271.623070    -22.132233                    
V  8  -6520.705346  -4920.640424 -30474.801428     -0.012725                    
P  9 -13154.993019  10578.606080 -20568.108988   -145.051162                    
V  9 -23893.184158 -10322.676935   9983.261824     -0.086335                    
P 10   4790.688965 -19239.052228  17635.302939   -228.932323                    
V 10  18636.621128 -12401.600588 -18898.809655     -0.133250                    
P 11 -18490.623141  -1872.541466  18369.845447   -374.449690                    
V 11 -11975.278773 -21661.619638 -14202.476053      0.108066                    
P 12  23368.478235  -8638.332435   8729.994440    156.369099                    
V 12  -8257.027156   8206.246556  29629.873310     -0.041402                    
P 13  23075.122715  13238.981348   -337.937836    -16.161512                    
V 13  -1484.728790   2072.578999 -31851.219402      0.026503                    
P 14 -15124.633402 -17847.588200  13077.642462    -35.388310                    
V 14  15222.586880   5356.151138  25381.248575      0.023705                    
P 15  25802.814007   2661.433410   6264.708539   -254.796188                    
V 15   7008.329703   5602.798480 -29407.119704      0.026202                    
P 16 -15697.041751  -6434.735325 -20756.194010   -119.443091                    
V 16  21333.754192 -14376.014408 -11353.015990     -0.040775                    
P 17   5308.675324  17203.618931  19973.141121    208.132309                    
V 17 -22356.143216  -9695.498062  14554.495568      0.064993                    
P 18 -15567.993069  -3623.732412  20722.707016      0.098235                    
V 18  -4467.095142 -27128.231668  -7822.512703      0.021391                    
P 19  13005.478956  17840.083573  14468.490509   -205.015064                    
V 19 -17441.619899  -7333.586443  24239.471814      0.051452                    
P 20  12883.967425 -21584.945422   8154.827207    527.844552                    
V 20   9999.474412  -4981.931154 -28876.945272      0.000171                    
P 21   3120.066465 -23738.493573 -10949.433384    -47.756889                    
V 21   5675.956061  14196.454767 -26973.512789      0.054571                    
P 22 -22005.574582   6534.754501  13482.275283   -783.551714                    
V 22  10445.804166 -13594.311550  24143.854362     -0.009625                    
P 23 -21173.690535   3920.880126 -15437.057817   -139.479808                    
V 23 -18041.985451  -9213.234309  21528.171765      0.025206                    
P 24  15243.360049  -3527.628400  21265.550695     -8.356670                    
V 24   5575.514314  26984.693827    835.971416     -0.006078                    
P 25  19558.958416 -17562.354384  -2780.224811    -14.654158                    
V 25   4313.515006    214.459166  31820.159795      0.010993                    
P 26  -7872.299837 -13498.238121 -21490.507811    138.765731                    
V 26  21272.883113 -17090.990957   3161.732711      0.078401                    
P 27 -23092.889640 -12702.214918  -4621.292421   -197.446864                    
V 27   5961.956425    338.515909 -31218.274523     -0.111990                    
P 28  -4967.254406  18422.382736  19129.035977    742.083807                    
V 28 -19847.214957  11578.877546 -16700.087730     -0.023565                    
P 29  14198.789774  -8431.746452 -20837.655161    -21.351464                    
V 29  23354.680206  12143.066904  10998.979032     -0.095187                    
P 30    393.316795  26268.590446  -3057.062632   -142.133922                    
V 30  -4030.066270  -3565.650876 -31067.438566     -0.089459                    
P 31  -7721.610040 -24132.727938  -7161.041178    -20.149786                    
V 31   2097.377885  -9453.284012  30193.571548     -0.024993                    
P 32  -6872.838323 -17240.815259  19114.860314    199.990728                    
V 32  22880.653027   7688.819867  15075.841310      0.102055                    
EOF
